{
    "links": {
        "self": "http://www.neowsapp.com/rest/v1/neo/3878595?api_key=iIulBulltgU6a56xZRHN4H3l9WmuAYTsLGpBGhQ2"
    },
    "id": "3878595",
    "neo_reference_id": "3878595",
    "name": "(2019 TO3)",
    "designation": "2019 TO3",
    "nasa_jpl_url": "http://ssd.jpl.nasa.gov/sbdb.cgi?sstr=3878595",
    "absolute_magnitude_h": 24.7,
    "estimated_diameter": {
        "kilometers": {
            "estimated_diameter_min": 0.0305179233,
            "estimated_diameter_max": 0.0682401509
        },
        "meters": {
            "estimated_diameter_min": 30.5179232594,
            "estimated_diameter_max": 68.2401509401
        },
        "miles": {
            "estimated_diameter_min": 0.0189629525,
            "estimated_diameter_max": 0.0424024508
        },
        "feet": {
            "estimated_diameter_min": 100.1244233463,
            "estimated_diameter_max": 223.8850168104
        }
    },
    "is_potentially_hazardous_asteroid": false,
    "close_approach_data": [
        {
            "close_approach_date": "2019-10-18",
            "close_approach_date_full": "2019-Oct-18 07:57",
            "epoch_date_close_approach": 1571385420000,
            "relative_velocity": {
                "kilometers_per_second": "9.9138805025",
                "kilometers_per_hour": "35689.9698091351",
                "miles_per_hour": "22176.3592961262"
            },
            "miss_distance": {
                "astronomical": "0.0563250728",
                "lunar": "21.9104533192",
                "kilometers": "8426110.918474936",
                "miles": "5235742.5401326768"
            },
            "orbiting_body": "Earth"
        },
        {
            "close_approach_date": "2168-09-26",
            "close_approach_date_full": "2168-Sep-26 20:37",
            "epoch_date_close_approach": 6271591020000,
            "relative_velocity": {
                "kilometers_per_second": "17.8230896599",
                "kilometers_per_hour": "64163.1227754726",
                "miles_per_hour": "39868.4692601263"
            },
            "miss_distance": {
                "astronomical": "0.3547885085",
                "lunar": "138.0127298065",
                "kilometers": "53075605.172076895",
                "miles": "32979651.767155351"
            },
            "orbiting_body": "Earth"
        }
    ],
    "orbital_data": {
        "orbit_id": "3",
        "orbit_determination_date": "2019-10-22 05:56:00",
        "first_observation_date": "2019-10-06",
        "last_observation_date": "2019-10-21",
        "data_arc_in_days": 15,
        "observations_used": 37,
        "orbit_uncertainty": "8",
        "minimum_orbit_intersection": ".0380491",
        "jupiter_tisserand_invariant": "4.015",
        "epoch_osculation": "2458763.5",
        "eccentricity": ".4280710767493806",
        "semi_major_axis": "1.73890991929322",
        "inclination": "11.78641379650755",
        "ascending_node_longitude": "203.6156408853914",
        "orbital_period": "837.5563857061342",
        "perihelion_distance": ".9945328777711927",
        "perihelion_argument": "212.2674295462856",
        "aphelion_distance": "2.483286960815247",
        "perihelion_time": "2458800.024973107644",
        "mean_anomaly": "344.3007700219895",
        "mean_motion": ".4298218079926501",
        "equinox": "J2000",
        "orbit_class": {
            "orbit_class_type": "APO",
            "orbit_class_description": "Near-Earth asteroid orbits which cross the Earth’s orbit similar to that of 1862 Apollo",
            "orbit_class_range": "a (semi-major axis) > 1.0 AU; q (perihelion) < 1.017 AU"
        }
    },
    "is_sentry_object": false
}